[{"OBJECT_NAME":"STARLINK-4424","OBJECT_ID":"2022-105AK","EPOCH":"2026-03-09T15:50:05.208000","MEAN_MOTION":15.012628,"ECCENTRICITY":0.00017974,"INCLINATION":97.602,"RA_OF_ASC_NODE":310.1899,"ARG_OF_PERICENTER":58.5581,"MEAN_ANOMALY":301.5819,"EPHEMERIS_TYPE":0,"CLASSIFICATION_TYPE":"U","NORAD_CAT_ID":53681,"ELEMENT_SET_NO":999,"REV_AT_EPOCH":19323,"BSTAR":2.8372042e-5,"MEAN_MOTION_DOT":3.06e-6,"MEAN_MOTION_DDOT":0},{"OBJECT_NAME":"TIANPING 3A-01","OBJECT_ID":"2024-189A","EPOCH":"2026-03-09T23:38:12.967584","MEAN_MOTION":15.01001778,"ECCENTRICITY":0.00023202,"INCLINATION":97.5354,"RA_OF_ASC_NODE":92.2908,"ARG_OF_PERICENTER":68.007,"MEAN_ANOMALY":292.1401,"EPHEMERIS_TYPE":0,"CLASSIFICATION_TYPE":"U","NORAD_CAT_ID":61614,"ELEMENT_SET_NO":999,"REV_AT_EPOCH":7560,"BSTAR":0.00039570452,"MEAN_MOTION_DOT":4.995e-5,"MEAN_MOTION_DDOT":0}]
